[{"OBJECT_NAME":"COSMOS 1629","OBJECT_ID":"1985-016A","EPOCH":"2026-04-26T19:34:52.876128","MEAN_MOTION":1.00290359,"ECCENTRICITY":0.00059655,"INCLINATION":9.2231,"RA_OF_ASC_NODE":314.8384,"ARG_OF_PERICENTER":267.6195,"MEAN_ANOMALY":111.4637,"EPHEMERIS_TYPE":0,"CLASSIFICATION_TYPE":"U","NORAD_CAT_ID":15574,"ELEMENT_SET_NO":999,"REV_AT_EPOCH":14994,"BSTAR":0,"MEAN_MOTION_DOT":4.6e-7,"MEAN_MOTION_DDOT":0},{"OBJECT_NAME":"GSTAR 1","OBJECT_ID":"1985-035A","EPOCH":"2026-04-26T04:30:36.332928","MEAN_MOTION":1.0027257,"ECCENTRICITY":0.00038026,"INCLINATION":14.3418,"RA_OF_ASC_NODE":349.1159,"ARG_OF_PERICENTER":92.6598,"MEAN_ANOMALY":94.9688,"EPHEMERIS_TYPE":0,"CLASSIFICATION_TYPE":"U","NORAD_CAT_ID":15677,"ELEMENT_SET_NO":999,"REV_AT_EPOCH":12468,"BSTAR":0,"MEAN_MOTION_DOT":-1.27e-6,"MEAN_MOTION_DDOT":0},{"OBJECT_NAME":"TELECOM 1B","OBJECT_ID":"1985-035B","EPOCH":"2026-04-26T21:51:02.088576","MEAN_MOTION":1.00353968,"ECCENTRICITY":0.00031253,"INCLINATION":10.2217,"RA_OF_ASC_NODE":321.2514,"ARG_OF_PERICENTER":3.9103,"MEAN_ANOMALY":159.7581,"EPHEMERIS_TYPE":0,"CLASSIFICATION_TYPE":"U","NORAD_CAT_ID":15678,"ELEMENT_SET_NO":999,"REV_AT_EPOCH":13650,"BSTAR":0,"MEAN_MOTION_DOT":-3.24e-6,"MEAN_MOTION_DDOT":0},{"OBJECT_NAME":"ARABSAT-1B","OBJECT_ID":"1985-048C","EPOCH":"2026-04-26T01:58:52.625856","MEAN_MOTION":1.00441473,"ECCENTRICITY":0.00167095,"INCLINATION":12.435,"RA_OF_ASC_NODE":334.483,"ARG_OF_PERICENTER":24.6258,"MEAN_ANOMALY":327.3142,"EPHEMERIS_TYPE":0,"CLASSIFICATION_TYPE":"U","NORAD_CAT_ID":15825,"ELEMENT_SET_NO":999,"REV_AT_EPOCH":13490,"BSTAR":0,"MEAN_MOTION_DOT":-2.29e-6,"MEAN_MOTION_DDOT":0},{"OBJECT_NAME":"TELSTAR 303","OBJECT_ID":"1985-048D","EPOCH":"2026-04-26T14:06:37.829376","MEAN_MOTION":0.99875298,"ECCENTRICITY":0.0002877,"INCLINATION":14.2256,"RA_OF_ASC_NODE":346.6652,"ARG_OF_PERICENTER":284.0137,"MEAN_ANOMALY":270.0954,"EPHEMERIS_TYPE":0,"CLASSIFICATION_TYPE":"U","NORAD_CAT_ID":15826,"ELEMENT_SET_NO":999,"REV_AT_EPOCH":4598,"BSTAR":0,"MEAN_MOTION_DOT":-3.51e-6,"MEAN_MOTION_DDOT":0},{"OBJECT_NAME":"INTELSAT 511","OBJECT_ID":"1985-055A","EPOCH":"2026-04-26T21:10:50.943648","MEAN_MOTION":1.0011729,"ECCENTRICITY":0.00131936,"INCLINATION":13.2418,"RA_OF_ASC_NODE":339.1199,"ARG_OF_PERICENTER":87.5242,"MEAN_ANOMALY":267.6581,"EPHEMERIS_TYPE":0,"CLASSIFICATION_TYPE":"U","NORAD_CAT_ID":15873,"ELEMENT_SET_NO":999,"REV_AT_EPOCH":12399,"BSTAR":0,"MEAN_MOTION_DOT":-1.62e-6,"MEAN_MOTION_DDOT":0},{"OBJECT_NAME":"RADUGA 16","OBJECT_ID":"1985-070A","EPOCH":"2026-04-26T19:35:37.804992","MEAN_MOTION":1.00277434,"ECCENTRICITY":0.00021805,"INCLINATION":9.5048,"RA_OF_ASC_NODE":317.1544,"ARG_OF_PERICENTER":322.8112,"MEAN_ANOMALY":56.6264,"EPHEMERIS_TYPE":0,"CLASSIFICATION_TYPE":"U","NORAD_CAT_ID":15946,"ELEMENT_SET_NO":999,"REV_AT_EPOCH":12171,"BSTAR":0,"MEAN_MOTION_DOT":5.6e-7,"MEAN_MOTION_DDOT":0},{"OBJECT_NAME":"OPTUS A1 (AUSSAT 1)","OBJECT_ID":"1985-076B","EPOCH":"2026-04-26T16:23:01.817952","MEAN_MOTION":0.99758313,"ECCENTRICITY":0.00040378,"INCLINATION":13.3362,"RA_OF_ASC_NODE":339.2216,"ARG_OF_PERICENTER":6.6335,"MEAN_ANOMALY":346.6862,"EPHEMERIS_TYPE":0,"CLASSIFICATION_TYPE":"U","NORAD_CAT_ID":15993,"ELEMENT_SET_NO":999,"REV_AT_EPOCH":11907,"BSTAR":0,"MEAN_MOTION_DOT":5.5e-7,"MEAN_MOTION_DDOT":0},{"OBJECT_NAME":"ASC 1","OBJECT_ID":"1985-076C","EPOCH":"2026-04-26T10:32:41.007264","MEAN_MOTION":1.00314981,"ECCENTRICITY":0.00033499,"INCLINATION":13.8357,"RA_OF_ASC_NODE":343.7262,"ARG_OF_PERICENTER":68.972,"MEAN_ANOMALY":211.5943,"EPHEMERIS_TYPE":0,"CLASSIFICATION_TYPE":"U","NORAD_CAT_ID":15994,"ELEMENT_SET_NO":999,"REV_AT_EPOCH":11745,"BSTAR":0,"MEAN_MOTION_DOT":-1.12e-6,"MEAN_MOTION_DDOT":0},{"OBJECT_NAME":"COSMOS 1700","OBJECT_ID":"1985-102A","EPOCH":"2026-04-26T13:55:23.905056","MEAN_MOTION":1.00317349,"ECCENTRICITY":0.0003576,"INCLINATION":9.7992,"RA_OF_ASC_NODE":319.1881,"ARG_OF_PERICENTER":242.3294,"MEAN_ANOMALY":296.6843,"EPHEMERIS_TYPE":0,"CLASSIFICATION_TYPE":"U","NORAD_CAT_ID":16199,"ELEMENT_SET_NO":999,"REV_AT_EPOCH":15115,"BSTAR":0,"MEAN_MOTION_DOT":-1.34e-6,"MEAN_MOTION_DDOT":0},{"OBJECT_NAME":"SL-12 R/B(2)","OBJECT_ID":"1985-102D","EPOCH":"2026-04-26T14:46:03.616896","MEAN_MOTION":1.00635654,"ECCENTRICITY":0.00192054,"INCLINATION":9.536,"RA_OF_ASC_NODE":318.3472,"ARG_OF_PERICENTER":155.1837,"MEAN_ANOMALY":215.3919,"EPHEMERIS_TYPE":0,"CLASSIFICATION_TYPE":"U","NORAD_CAT_ID":16214,"ELEMENT_SET_NO":999,"REV_AT_EPOCH":12433,"BSTAR":0,"MEAN_MOTION_DOT":-1.67e-6,"MEAN_MOTION_DDOT":0},{"OBJECT_NAME":"RADUGA 17","OBJECT_ID":"1985-107A","EPOCH":"2026-04-26T22:22:31.388736","MEAN_MOTION":1.00138656,"ECCENTRICITY":0.00123886,"INCLINATION":9.694,"RA_OF_ASC_NODE":318.6931,"ARG_OF_PERICENTER":233.8256,"MEAN_ANOMALY":104.3042,"EPHEMERIS_TYPE":0,"CLASSIFICATION_TYPE":"U","NORAD_CAT_ID":16250,"ELEMENT_SET_NO":999,"REV_AT_EPOCH":15115,"BSTAR":0,"MEAN_MOTION_DOT":-3.56e-6,"MEAN_MOTION_DDOT":0},{"OBJECT_NAME":"OPTUS A2 (AUSSAT 2)","OBJECT_ID":"1985-109C","EPOCH":"2026-04-26T12:10:51.781728","MEAN_MOTION":0.9995508,"ECCENTRICITY":0.00050628,"INCLINATION":13.4026,"RA_OF_ASC_NODE":340.5049,"ARG_OF_PERICENTER":328.1166,"MEAN_ANOMALY":236.0368,"EPHEMERIS_TYPE":0,"CLASSIFICATION_TYPE":"U","NORAD_CAT_ID":16275,"ELEMENT_SET_NO":999,"REV_AT_EPOCH":4601,"BSTAR":0,"MEAN_MOTION_DOT":-3.05e-6,"MEAN_MOTION_DDOT":0},{"OBJECT_NAME":"STTW-1","OBJECT_ID":"1986-010A","EPOCH":"2026-04-26T12:17:47.320800","MEAN_MOTION":1.00224155,"ECCENTRICITY":0.00029416,"INCLINATION":10.6867,"RA_OF_ASC_NODE":323.8909,"ARG_OF_PERICENTER":317.0276,"MEAN_ANOMALY":210.5687,"EPHEMERIS_TYPE":0,"CLASSIFICATION_TYPE":"U","NORAD_CAT_ID":16526,"ELEMENT_SET_NO":999,"REV_AT_EPOCH":15494,"BSTAR":0,"MEAN_MOTION_DOT":-2.79e-6,"MEAN_MOTION_DDOT":0},{"OBJECT_NAME":"GSTAR 2","OBJECT_ID":"1986-026A","EPOCH":"2026-04-26T14:49:48.257760","MEAN_MOTION":0.99789902,"ECCENTRICITY":0.00036165,"INCLINATION":14.2264,"RA_OF_ASC_NODE":346.2443,"ARG_OF_PERICENTER":31.9029,"MEAN_ANOMALY":324.4804,"EPHEMERIS_TYPE":0,"CLASSIFICATION_TYPE":"U","NORAD_CAT_ID":16649,"ELEMENT_SET_NO":999,"REV_AT_EPOCH":11612,"BSTAR":0,"MEAN_MOTION_DOT":-1.23e-6,"MEAN_MOTION_DDOT":0},{"OBJECT_NAME":"BRASILSAT 2","OBJECT_ID":"1986-026B","EPOCH":"2026-04-26T02:18:06.053760","MEAN_MOTION":0.99637771,"ECCENTRICITY":0.00041295,"INCLINATION":14.5468,"RA_OF_ASC_NODE":350.8103,"ARG_OF_PERICENTER":344.6395,"MEAN_ANOMALY":193.2132,"EPHEMERIS_TYPE":0,"CLASSIFICATION_TYPE":"U","NORAD_CAT_ID":16650,"ELEMENT_SET_NO":999,"REV_AT_EPOCH":4586,"BSTAR":0,"MEAN_MOTION_DOT":-1.86e-6,"MEAN_MOTION_DDOT":0},{"OBJECT_NAME":"COSMOS 1738","OBJECT_ID":"1986-027A","EPOCH":"2026-04-26T20:22:48.280224","MEAN_MOTION":1.00265206,"ECCENTRICITY":0.0012317,"INCLINATION":10.3478,"RA_OF_ASC_NODE":318.1548,"ARG_OF_PERICENTER":137.8304,"MEAN_ANOMALY":58.3466,"EPHEMERIS_TYPE":0,"CLASSIFICATION_TYPE":"U","NORAD_CAT_ID":16667,"ELEMENT_SET_NO":999,"REV_AT_EPOCH":14683,"BSTAR":0,"MEAN_MOTION_DOT":-9.4e-7,"MEAN_MOTION_DDOT":0}]
