COSMOS 1629             
1 15574U 85016A   26116.81588977  .00000046  00000+0  00000+0 0  9999
2 15574   9.2231 314.8384 0005965 267.6195 111.4637  1.00290359149942
GSTAR 1                 
1 15677U 85035A   26116.18792052 -.00000127  00000+0  00000+0 0  9996
2 15677  14.3418 349.1159 0003802  92.6598  94.9688  1.00272570124682
TELECOM 1B              
1 15678U 85035B   26116.91044084 -.00000324  00000+0  00000+0 0  9992
2 15678  10.2217 321.2514 0003125   3.9103 159.7581  1.00353968136503
ARABSAT-1B              
1 15825U 85048C   26116.08255354 -.00000229  00000+0  00000+0 0  9996
2 15825  12.4350 334.4830 0016709  24.6258 327.3142  1.00441473134906
TELSTAR 303             
1 15826U 85048D   26116.58793784 -.00000351  00000+0  00000+0 0  9992
2 15826  14.2256 346.6652 0002877 284.0137 270.0954  0.99875298 45985
INTELSAT 511            
1 15873U 85055A   26116.88253407 -.00000162  00000+0  00000+0 0  9998
2 15873  13.2418 339.1199 0013193  87.5242 267.6581  1.00117290123995
RADUGA 16               
1 15946U 85070A   26116.81640978  .00000056  00000+0  00000+0 0  9993
2 15946   9.5048 317.1544 0002180 322.8112  56.6264  1.00277434121717
OPTUS A1 (AUSSAT 1)     
1 15993U 85076B   26116.68265993  .00000055  00000+0  00000+0 0  9995
2 15993  13.3362 339.2216 0004037   6.6335 346.6862  0.99758313119078
ASC 1                   
1 15994U 85076C   26116.43936351 -.00000112  00000+0  00000+0 0  9997
2 15994  13.8357 343.7262 0003349  68.9720 211.5943  1.00314981117455
COSMOS 1700             
1 16199U 85102A   26116.58013779 -.00000134  00000+0  00000+0 0  9995
2 16199   9.7992 319.1881 0003576 242.3294 296.6843  1.00317349151151
SL-12 R/B(2)            
1 16214U 85102D   26116.61531964 -.00000167  00000+0  00000+0 0  9994
2 16214   9.5360 318.3472 0019205 155.1837 215.3919  1.00635654124337
RADUGA 17               
1 16250U 85107A   26116.93230774 -.00000356  00000+0  00000+0 0  9999
2 16250   9.6940 318.6931 0012388 233.8256 104.3042  1.00138656151153
OPTUS A2 (AUSSAT 2)     
1 16275U 85109C   26116.50754377 -.00000305  00000+0  00000+0 0  9995
2 16275  13.4026 340.5049 0005062 328.1166 236.0368  0.99955080 46018
STTW-1                  
1 16526U 86010A   26116.51235325 -.00000279  00000+0  00000+0 0  9994
2 16526  10.6867 323.8909 0002941 317.0276 210.5687  1.00224155154948
GSTAR 2                 
1 16649U 86026A   26116.61791965 -.00000123  00000+0  00000+0 0  9993
2 16649  14.2264 346.2443 0003616  31.9029 324.4804  0.99789902116122
BRASILSAT 2             
1 16650U 86026B   26116.09590340 -.00000186  00000+0  00000+0 0  9990
2 16650  14.5468 350.8103 0004129 344.6395 193.2132  0.99637771 45861
COSMOS 1738             
1 16667U 86027A   26116.84916991 -.00000094  00000+0  00000+0 0  9994
2 16667  10.3478 318.1548 0012317 137.8304  58.3466  1.00265206146837
